[{"OBJECT_NAME":"STARLINK-5591","OBJECT_ID":"2023-028AG","EPOCH":"2026-03-09T19:46:08.982048","MEAN_MOTION":14.98331041,"ECCENTRICITY":0.00030516,"INCLINATION":69.9995,"RA_OF_ASC_NODE":224.0962,"ARG_OF_PERICENTER":271.1011,"MEAN_ANOMALY":88.9798,"EPHEMERIS_TYPE":0,"CLASSIFICATION_TYPE":"U","NORAD_CAT_ID":55771,"ELEMENT_SET_NO":999,"REV_AT_EPOCH":16655,"BSTAR":0.00012836784,"MEAN_MOTION_DOT":1.439e-5,"MEAN_MOTION_DDOT":0},{"OBJECT_NAME":"LEMUR-2-THEFALCONER","OBJECT_ID":"2025-052BG","EPOCH":"2026-03-09T22:50:08.545056","MEAN_MOTION":14.96514677,"ECCENTRICITY":0.00021143,"INCLINATION":97.6968,"RA_OF_ASC_NODE":322.9473,"ARG_OF_PERICENTER":10.9074,"MEAN_ANOMALY":349.2193,"EPHEMERIS_TYPE":0,"CLASSIFICATION_TYPE":"U","NORAD_CAT_ID":63264,"ELEMENT_SET_NO":999,"REV_AT_EPOCH":5384,"BSTAR":0.00055972494,"MEAN_MOTION_DOT":6.306e-5,"MEAN_MOTION_DDOT":0}]
