STARLINK-5591           
1 55771U 23028AG  26068.82371507  .00001439  00000+0  12837-3 0  9995
2 55771  69.9995 224.0962 0003051 271.1011  88.9798 14.98331041166557
LEMUR-2-THEFALCONER     
1 63264U 25052BG  26068.95148778  .00006306  00000+0  55972-3 0  9991
2 63264  97.6968 322.9473 0002114  10.9074 349.2193 14.96514677 53848
